{
    "CCSDS_OMM_VERS": "3.0",
    "COMMENT": "GENERATED VIA SPACE-TRACK.ORG API",
    "CREATION_DATE": "2025-11-24T07:26:19",
    "ORIGINATOR": "18 SPCS",
    "OBJECT_NAME": "COSMOS 2534 (GLONASS)",
    "OBJECT_ID": "2019-030A",
    "CENTER_NAME": "EARTH",
    "REF_FRAME": "TEME",
    "TIME_SYSTEM": "UTC",
    "MEAN_ELEMENT_THEORY": "SGP4",
    "EPOCH": "2025-11-24T04:43:00.031296",
    "MEAN_MOTION": "2.13102176",
    "ECCENTRICITY": "0.00093290",
    "INCLINATION": "64.3650",
    "RA_OF_ASC_NODE": "199.5178",
    "ARG_OF_PERICENTER": "283.0880",
    "MEAN_ANOMALY": "273.8477",
    "EPHEMERIS_TYPE": "0",
    "CLASSIFICATION_TYPE": "U",
    "NORAD_CAT_ID": "44299",
    "ELEMENT_SET_NO": "999",
    "REV_AT_EPOCH": "5055",
    "BSTAR": "0.00000000000000",
    "MEAN_MOTION_DOT": "0.00000059",
    "MEAN_MOTION_DDOT": "0.0000000000000",
    "SEMIMAJOR_AXIS": "25508.010",
    "PERIOD": "675.732",
    "APOAPSIS": "19153.672",
    "PERIAPSIS": "19106.079",
    "OBJECT_TYPE": "PAYLOAD",
    "RCS_SIZE": "LARGE",
    "COUNTRY_CODE": "CIS",
    "LAUNCH_DATE": "2019-05-27",
    "SITE": "PKMTR",
    "DECAY_DATE": null,
    "FILE": "4897008",
    "GP_ID": "303367946",
    "TLE_LINE0": "0 COSMOS 2534 (GLONASS)",
    "TLE_LINE1": "1 44299U 19030A   25328.19652814  .00000059  00000-0  00000+0 0  9990",
    "TLE_LINE2": "2 44299  64.3650 199.5178 0009329 283.0880 273.8477  2.13102176 50552"
}